BEIDOU-2 IGSO-5         
1 37948U 11073A   26175.65702808 -.00000196  00000+0  00000+0 0  9995
2 37948  47.6633 271.4526 0114223 222.0346 107.5350  1.00272136 53204
LUCH-5A                 
1 37951U 11074B   26177.79166108 -.00000047  00000+0  00000+0 0  9999
2 37951   8.7778  73.6684 0002705  31.4807 261.6864  1.00272377 53140
BEIDOU-2 G5             
1 38091U 12008A   26177.74855803  .00000064  00000+0  00000+0 0  9993
2 38091   3.5980  69.6465 0008668 276.0371 257.3928  1.00275757 52465
BEIDOU-2 M3             
1 38250U 12018A   26176.78001370 -.00000106  00000+0  00000+0 0  9994
2 38250  55.7497 304.5848 0020314 273.3514  86.4060  1.86229866 96102
BEIDOU-2 M4             
1 38251U 12018B   26177.24927973 -.00000103  00000+0  00000+0 0  9990
2 38251  55.6492 303.7834 0011701 273.7859  86.0713  1.86229631 96111
SES-5                   
1 38652U 12036A   26177.80919689  .00000044  00000+0  00000+0 0  9995
2 38652   0.0452 318.1712 0002498 148.3859 104.6501  1.00264246 44551
BEIDOU-2 M6             
1 38775U 12050B   26176.95898031 -.00000089  00000+0  00000+0 0  9999
2 38775  56.5518  62.6042 0013515 358.2268   1.8099  1.86231117 93471
GSAT-10                 
1 38779U 12051B   26177.89589948 -.00000153  00000+0  00000+0 0  9994
2 38779   0.0591 258.7083 0008168 192.2182 229.6362  1.00272019 50199
NAVSTAR 67 (USA 239)    
1 38833U 12053A   26177.29038387  .00000028  00000+0  00000+0 0  9997
2 38833  53.5875 143.2264 0180813  65.8944 295.9517  2.00567692 99620
GSAT0103 (GALILEO-FM3)  
1 38857U 12055A   26177.27442491 -.00000038  00000+0  00000+0 0  9990
2 38857  55.8119 101.2962 0004643 306.5520  53.3783  1.70473541 85162
BEIDOU-2 G6             
1 38953U 12059A   26177.82484706 -.00000168  00000+0  00000+0 0  9991
2 38953   4.4462  73.4242 0009717 328.6742 253.8261  1.00271375 50006
LUCH-5B                 
1 38977U 12061A   26177.94558569 -.00000135  00000+0  00000+0 0  9996
2 38977  10.5047  49.7860 0002535 136.0816  53.3522  1.00272760 49702
COSMOS 2485 [GLONASS-M] 
1 39155U 13019A   26177.29519291 -.00000060  00000+0  00000+0 0  9993
2 39155  65.4249  73.2985 0022911 233.1072 126.7203  2.13103278102474
NAVSTAR 68 (USA 242)    
1 39166U 13023A   26176.65900812 -.00000046  00000+0  00000+0 0  9996
2 39166  54.4973 268.6283 0141475  51.0602 310.2306  2.00563550 96051
IRNSS-1A                
1 39199U 13034A   26177.74795137  .00000049  00000+0  00000+0 0  9999
2 39199  35.7414  63.7332 0018548 177.8965 357.4604  1.00278024 47464
NAVSTAR 69 (USA 248)    
1 39533U 14008A   26177.15932725  .00000041  00000+0  00000+0 0  9996
2 39533  53.6559 148.9537 0084215 231.3935 127.8246  2.00560425 89866
ASTRA 5B                
1 39617U 14011B   26177.95541144  .00000149  00000+0  00000+0 0  9991
2 39617   0.0528 325.2329 0002211 114.4293 202.8272  1.00272599 44768
COSMOS 2492 [GLONASS-M] 
1 39620U 14012A   26174.90776451 -.00000082  00000+0  00000+0 0  9996
2 39620  65.2933 313.7069 0010214 323.0851  36.8355  2.13103141 95380
IRNSS-1B                
1 39635U 14017A   26177.74786470  .00000145  00000+0  00000+0 0  9993
2 39635  28.9068 240.2389 0023551 196.9483 161.9840  1.00269902 44887
LUCH-5V                 
1 39727U 14023A   26177.70252914 -.00000262  00000+0  00000+0 0  9990
2 39727   5.1567  69.6542 0002461  49.0043 143.8337  1.00272015 44453
NAVSTAR 70 (USA 251)    
1 39741U 14026A   26176.93636039 -.00000104  00000+0  00000+0 0  9992
2 39741  56.4938 331.1769 0038119 326.3471  33.4038  2.00560487 88716
COSMOS 2500 [GLONASS-M] 
1 40001U 14032A   26177.89294685 -.00000083  00000+0  00000+0 0  9999
2 40001  65.2262 313.3518 0007726 185.8868 174.0932  2.13105989 93668
NAVSTAR 71 (USA 256)    
1 40105U 14045A   26177.02815772 -.00000068  00000+0  00000+0 0  9992
2 40105  55.3587  88.1127 0033686 118.2750 242.0678  2.00559107 86251
GSAT0201 (GALILEO 5)    
1 40128U 14050A   26177.04069356 -.00000070  00000+0  00000+0 0  9997
2 40128  48.8656 273.0732 1675889 179.7342 180.4221  1.85520188 78488
GSAT0202 (GALILEO 6)    
1 40129U 14050B   26177.29620125 -.00000065  00000+0  00000+0 0  9996
2 40129  48.8820 272.1482 1677100 180.4759 179.3977  1.85520779 80656
IRNSS-1C                
1 40269U 14061A   26176.68398682 -.00000155  00000+0  00000+0 0  9995
2 40269   6.5386  88.7700 0022592   3.4967 150.6688  1.00267985 42772
NAVSTAR 72 (USA 258)    
1 40294U 14068A   26176.89738811 -.00000085  00000+0  00000+0 0  9997
2 40294  56.9936  30.6191 0067228  70.9208 289.8621  2.00576883 85389
COSMOS 2501 [GLONASS-K] 
1 40315U 14075A   26177.21663207  .00000105  00000+0  00000+0 0  9994
2 40315  63.6151 190.0588 0022237 210.4369 149.4832  2.13109644 90043
NAVSTAR 73 (USA 260)    
1 40534U 15013A   26177.03735334  .00000087  00000+0  00000+0 0  9990
2 40534  53.1674 203.8114 0109747  40.1916 320.6840  2.00550980 82004
GSAT0203 (GALILEO 7)    
1 40544U 15017A   26177.59813449 -.00000096  00000+0  00000+0 0  9991
2 40544  56.7831 341.3391 0002130 269.4919  90.4779  1.70476365 69368
GSAT0204 (GALILEO 8)    
1 40545U 15017B   26174.92103312 -.00000099  00000+0  00000+0 0  9990
2 40545  56.7909 341.4306 0002093 241.0442 118.9316  1.70475870 32360
