OBJECT_NAME,OBJECT_ID,EPOCH,MEAN_MOTION,ECCENTRICITY,INCLINATION,RA_OF_ASC_NODE,ARG_OF_PERICENTER,MEAN_ANOMALY,EPHEMERIS_TYPE,CLASSIFICATION_TYPE,NORAD_CAT_ID,ELEMENT_SET_NO,REV_AT_EPOCH,BSTAR,MEAN_MOTION_DOT,MEAN_MOTION_DDOT
BEIDOU-2 IGSO-5 (C10),2011-073A,2026-06-24T15:46:07.226112,1.00272136,.01142233,47.6633,271.4526,222.0346,107.5350,0,U,37948,999,5320,0,-.196E-5,0
LUCH 5A (SDCM/PRN 140),2011-074B,2026-06-26T18:59:59.517312,1.00272377,.00027052,8.7778,73.6684,31.4807,261.6864,0,U,37951,999,5314,0,-.47E-6,0
BEIDOU-2 G5 (C05),2012-008A,2026-06-26T17:57:55.413792,1.00275757,.0008668,3.5980,69.6465,276.0371,257.3928,0,U,38091,999,5246,0,.64E-6,0
BEIDOU-2 M3 (C11),2012-018A,2026-06-25T18:43:13.183680,1.86229866,.00203148,55.7497,304.5848,273.3514,86.4060,0,U,38250,999,9610,0,-.106E-5,0
BEIDOU-2 M4 (C12),2012-018B,2026-06-26T05:58:57.768672,1.86229631,.00117016,55.6492,303.7834,273.7859,86.0713,0,U,38251,999,9611,0,-.103E-5,0
SES-5 (EGNOS/PRN 136),2012-036A,2026-06-26T19:25:14.611296,1.00264246,.00024985,0.0452,318.1712,148.3859,104.6501,0,U,38652,999,4455,0,.44E-6,0
BEIDOU-2 M6 (C14),2012-050B,2026-06-25T23:00:55.898784,1.86231117,.00135158,56.5518,62.6042,358.2268,1.8099,0,U,38775,999,9347,0,-.89E-6,0
GSAT-10 (GAGAN/PRN 128),2012-051B,2026-06-26T21:30:05.715072,1.00272019,.00081687,0.0591,258.7083,192.2182,229.6362,0,U,38779,999,5019,0,-.153E-5,0
GPS BIIF-3  (PRN 24),2012-053A,2026-06-26T06:58:09.166368,2.00567692,.0180813,53.5875,143.2264,65.8944,295.9517,0,U,38833,999,9962,0,.28E-6,0
GSAT0103 (GALILEO-FM3),2012-055A,2026-06-26T06:35:10.312224,1.70473541,.00046433,55.8119,101.2962,306.5520,53.3783,0,U,38857,999,8516,0,-.38E-6,0
BEIDOU-2 G6 (C02),2012-059A,2026-06-26T19:47:46.785984,1.00271375,.0009717,4.4462,73.4242,328.6742,253.8261,0,U,38953,999,5000,0,-.168E-5,0
LUCH 5B (SDCM/PRN 125),2012-061A,2026-06-26T22:41:38.603616,1.00272760,.00025354,10.5047,49.7860,136.0816,53.3522,0,U,38977,999,4970,0,-.135E-5,0
COSMOS 2485 (747),2013-019A,2026-06-26T07:05:04.667424,2.13103278,.00229117,65.4249,73.2985,233.1072,126.7203,0,U,39155,999,10247,0,-.6E-6,0
GPS BIIF-4  (PRN 27),2013-023A,2026-06-25T15:48:58.301568,2.00563550,.01414754,54.4973,268.6283,51.0602,310.2306,0,U,39166,999,9605,0,-.46E-6,0
IRNSS-1A,2013-034A,2026-06-26T17:57:02.998368,1.00278024,.00185483,35.7414,63.7332,177.8965,357.4604,0,U,39199,999,4746,0,.49E-6,0
GPS BIIF-5  (PRN 30),2014-008A,2026-06-26T03:49:25.874400,2.00560425,.0084215,53.6559,148.9537,231.3935,127.8246,0,U,39533,999,8986,0,.41E-6,0
ASTRA 5B (EGNOS/PRN 123),2014-011B,2026-06-26T22:55:47.548416,1.00272599,.00022119,0.0528,325.2329,114.4293,202.8272,0,U,39617,999,4476,0,.149E-5,0
COSMOS 2492 (754),2014-012A,2026-06-23T21:47:10.853664,2.13103141,.00102141,65.2933,313.7069,323.0851,36.8355,0,U,39620,999,9538,0,-.82E-6,0
IRNSS-1B,2014-017A,2026-06-26T17:56:55.510080,1.00269902,.00235518,28.9068,240.2389,196.9483,161.9840,0,U,39635,999,4488,0,.145E-5,0
LUCH 5V (SDCM/PRN 141),2014-023A,2026-06-26T16:51:38.517696,1.00272015,.00024617,5.1567,69.6542,49.0043,143.8337,0,U,39727,999,4445,0,-.262E-5,0
GPS BIIF-6  (PRN 06),2014-026A,2026-06-25T22:28:21.537696,2.00560487,.0038119,56.4938,331.1769,326.3471,33.4038,0,U,39741,999,8871,0,-.104E-5,0
COSMOS 2500 (755),2014-032A,2026-06-26T21:25:50.607840,2.13105989,.00077264,65.2262,313.3518,185.8868,174.0932,0,U,40001,999,9366,0,-.83E-6,0
GPS BIIF-7  (PRN 09),2014-045A,2026-06-26T00:40:32.827008,2.00559107,.0033686,55.3587,88.1127,118.2750,242.0678,0,U,40105,999,8625,0,-.68E-6,0
GSAT0201 (GALILEO 5),2014-050A,2026-06-26T00:58:35.923584,1.85520188,.1675889,48.8656,273.0732,179.7342,180.4221,0,U,40128,999,7848,0,-.7E-6,0
GSAT0202 (GALILEO 6),2014-050B,2026-06-26T07:06:31.788000,1.85520779,.16771,48.8820,272.1482,180.4759,179.3977,0,U,40129,999,8065,0,-.65E-6,0
IRNSS-1C,2014-061A,2026-06-25T16:24:56.461248,1.00267985,.0022592,6.5386,88.7700,3.4967,150.6688,0,U,40269,999,4277,0,-.155E-5,0
GPS BIIF-8  (PRN 03),2014-068A,2026-06-25T21:32:14.332704,2.00576883,.0067228,56.9936,30.6191,70.9208,289.8621,0,U,40294,999,8538,0,-.85E-6,0
COSMOS 2501 (702K),2014-075A,2026-06-26T05:11:57.010848,2.13109644,.00222379,63.6151,190.0588,210.4369,149.4832,0,U,40315,999,9004,0,.105E-5,0
GPS BIIF-9  (PRN 26),2015-013A,2026-06-26T00:53:47.328576,2.00550980,.01097479,53.1674,203.8114,40.1916,320.6840,0,U,40534,999,8200,0,.87E-6,0
GSAT0203 (GALILEO 7),2015-017A,2026-06-26T14:21:18.819936,1.70476365,.00021306,56.7831,341.3391,269.4919,90.4779,0,U,40544,999,6936,0,-.96E-6,0
GSAT0204 (GALILEO 8),2015-017B,2026-06-23T22:06:17.261568,1.70475870,.00020932,56.7909,341.4306,241.0442,118.9316,0,U,40545,999,3236,0,-.99E-6,0
